IRIDIUM 171             
1 43929U 19002H   24326.15248729  .00000251  00000+0  82651-4 0  9997
2 43929  86.4003 233.2429 0001891  76.9187 283.2219 14.34218593306828
IRIDIUM 170             
1 43930U 19002J   24325.85754794  .00002222  00000+0  34825-3 0  9998
2 43930  86.6122 233.1581 0002216  87.0999 273.0472 14.72280151314905
IRIDIUM 167             
1 43931U 19002K   24325.86706901  .00000591  00000+0  20385-3 0  9990
2 43931  86.3996 233.1369 0002153  73.4516 286.6916 14.34220915306780
IRIDIUM 181             
1 56726U 23068S   24326.31705354  .00000481  00000+0  13625-3 0  9992
2 56726  86.8592 294.3210 0002059  81.6497 278.4938 14.43595157 79807
IRIDIUM 177             
1 56727U 23068T   24326.66943558  .00003450  00000+0  45040-3 0  9996
2 56727  86.1987 240.5600 0002677  70.7843 289.3667 14.80233625 81673
IRIDIUM 174             
1 56728U 23068U   24326.73155495  .00003445  00000+0  44972-3 0  9997
2 56728  86.1993 240.6465 0002390  88.1146 272.0349 14.80245306 81688
IRIDIUM 178             
1 56729U 23068V   24326.79372577  .00003259  00000+0  42521-3 0  9997
2 56729  86.5766 265.5442 0002610  74.7860 285.3650 14.80254689 81698
IRIDIUM 179             
1 56730U 23068W   24326.78833822  .00003283  00000+0  42891-3 0  9990
2 56730  86.6768 271.6683 0002820  85.2130 274.9413 14.80204880 81697
